{
    "links": {
        "self": "http://www.neowsapp.com/rest/v1/neo/3410172?api_key=iIulBulltgU6a56xZRHN4H3l9WmuAYTsLGpBGhQ2"
    },
    "id": "3410172",
    "neo_reference_id": "3410172",
    "name": "(2008 JW2)",
    "designation": "2008 JW2",
    "nasa_jpl_url": "http://ssd.jpl.nasa.gov/sbdb.cgi?sstr=3410172",
    "absolute_magnitude_h": 19.6,
    "estimated_diameter": {
        "kilometers": {
            "estimated_diameter_min": 0.3195618867,
            "estimated_diameter_max": 0.7145621017
        },
        "meters": {
            "estimated_diameter_min": 319.5618867213,
            "estimated_diameter_max": 714.5621017269
        },
        "miles": {
            "estimated_diameter_min": 0.1985664891,
            "estimated_diameter_max": 0.4440081677
        },
        "feet": {
            "estimated_diameter_min": 1048.4314204307,
            "estimated_diameter_max": 2344.3639258298
        }
    },
    "is_potentially_hazardous_asteroid": true,
    "close_approach_data": [
        {
            "close_approach_date": "1998-11-01",
            "close_approach_date_full": "1998-Nov-01 02:49",
            "epoch_date_close_approach": 909888540000,
            "relative_velocity": {
                "kilometers_per_second": "5.5741805036",
                "kilometers_per_hour": "20067.0498128771",
                "miles_per_hour": "12468.8843684513"
            },
            "miss_distance": {
                "astronomical": "1.143081553",
                "lunar": "444.658724117",
                "kilometers": "171002565.56509211",
                "miles": "106256067.082846718"
            },
            "orbiting_body": "Juptr"
        },
        {
            "close_approach_date": "2008-04-01",
            "close_approach_date_full": "2008-Apr-01 16:36",
            "epoch_date_close_approach": 1207067760000,
            "relative_velocity": {
                "kilometers_per_second": "10.9034346235",
                "kilometers_per_hour": "39252.3646445474",
                "miles_per_hour": "24389.8929092745"
            },
            "miss_distance": {
                "astronomical": "0.1061788345",
                "lunar": "41.3035666205",
                "kilometers": "15884127.480282515",
                "miles": "9869939.141088107"
            },
            "orbiting_body": "Earth"
        },
        {
            "close_approach_date": "2010-07-16",
            "close_approach_date_full": "2010-Jul-16 22:42",
            "epoch_date_close_approach": 1279320120000,
            "relative_velocity": {
                "kilometers_per_second": "7.8988933905",
                "kilometers_per_hour": "28436.0162059026",
                "miles_per_hour": "17669.0346252732"
            },
            "miss_distance": {
                "astronomical": "1.7001735177",
                "lunar": "661.3674983853",
                "kilometers": "254342336.878327299",
                "miles": "158040999.6776587662"
            },
            "orbiting_body": "Juptr"
        },
        {
            "close_approach_date": "2046-04-04",
            "close_approach_date_full": "2046-Apr-04 22:57",
            "epoch_date_close_approach": 2406495420000,
            "relative_velocity": {
                "kilometers_per_second": "11.7956165768",
                "kilometers_per_hour": "42464.2196764282",
                "miles_per_hour": "26385.6147206117"
            },
            "miss_distance": {
                "astronomical": "0.1293546036",
                "lunar": "50.3189408004",
                "kilometers": "19351173.173254332",
                "miles": "12024261.4374485016"
            },
            "orbiting_body": "Earth"
        }
    ],
    "orbital_data": {
        "orbit_id": "11",
        "orbit_determination_date": "2017-04-06 09:03:32",
        "first_observation_date": "2008-05-03",
        "last_observation_date": "2008-05-30",
        "data_arc_in_days": 27,
        "observations_used": 41,
        "orbit_uncertainty": "7",
        "minimum_orbit_intersection": ".0208972",
        "jupiter_tisserand_invariant": "3.177",
        "epoch_osculation": "2459000.5",
        "eccentricity": ".6364521698483298",
        "semi_major_axis": "2.438264513077851",
        "inclination": "8.854041455383298",
        "ascending_node_longitude": "35.57168260820619",
        "orbital_period": "1390.655807332556",
        "perihelion_distance": ".8864257730652715",
        "perihelion_argument": "142.2294037754149",
        "aphelion_distance": "3.99010325309043",
        "perihelion_time": "2458727.688247423730",
        "mean_anomaly": "70.62296105881153",
        "mean_motion": ".2588706695803637",
        "equinox": "J2000",
        "orbit_class": {
            "orbit_class_type": "APO",
            "orbit_class_description": "Near-Earth asteroid orbits which cross the Earth’s orbit similar to that of 1862 Apollo",
            "orbit_class_range": "a (semi-major axis) > 1.0 AU; q (perihelion) < 1.017 AU"
        }
    },
    "is_sentry_object": false
}